[
    {
        "Altitude(m)": 607897.6321124187,
        "Argument of Periapsis(deg)": 0.0,
        "Eccentricity": 0.0,
        "Inclination(deg)": 60.0,
        "Latitude(deg)": -14.293033060637384,
        "Longitude(deg)": -18.38121815932863,
        "Mean Anomaly(deg)": -16.363600000000037,
        "RAAN(deg)": 90.0,
        "Satellite Name": "Test1 417",
        "Satellite Number": 417,
        "Semi-Major Axis(m)": 6980739.136638005,
        "Time(s)": 0
    },
    {
        "Altitude(m)": 607750.8327056201,
        "Argument of Periapsis(deg)": 0.00010418945913296404,
        "Eccentricity": 0.0,
        "Inclination(deg)": 60.0,
        "Latitude(deg)": -13.75887393313163,
        "Longitude(deg)": -18.094150152661136,
        "Mean Anomaly(deg)": -15.743493854538197,
        "RAAN(deg)": 89.99957995086027,
        "Satellite Name": "Test1 417",
        "Satellite Number": 417,
        "Semi-Major Axis(m)": 6980739.136638005,
        "Time(s)": 10
    }
]